NORAD_CAT_ID,OBJECT_NAME,OBJECT_TYPE,EPOCH,MEAN_MOTION,ECCENTRICITY,INCLINATION,RA_OF_ASC_NODE,ARG_OF_PERICENTER,MEAN_ANOMALY,BSTAR,MEAN_MOTION_DOT,MEAN_MOTION_DDOT,TLE_LINE0,TLE_LINE1,TLE_LINE2,SEMIMAJOR_AXIS,PERIOD,APOGEE,PERIGEE,DECAYED
52840.0,STARLINK-4049,PAYLOAD,2023-02-19 23:34:20,15.08884649,0.0001269,53.2165,353.7505,37.2156,322.8924,0.0021283,0.00033788,0.0,0 STARLINK-4049,1 52840U 22062L   23050.98218747  .00033788  00000-0  21283-2 0  9994,2 52840  53.2165 353.7505 0001269  37.2156 322.8924 15.08884649 38142,6917.744,95.435,540.487,538.731,0.0
52840.0,STARLINK-4049,PAYLOAD,2023-02-20 02:45:07,15.0886121,0.0001234,53.2166,353.156,79.907,280.2062,0.0018627,0.00029499,0.0,0 STARLINK-4049,1 52840U 22062L   23051.11466444  .00029499  00000-0  18627-2 0  9991,2 52840  53.2166 353.1560 0001234  79.9070 280.2062 15.08861210 38169,6917.816,95.436,540.534,538.827,0.0
52840.0,STARLINK-4049,PAYLOAD,2023-02-20 23:25:07,15.08844891,0.0001149,53.2183,349.2908,91.461,268.6513,0.0011837,0.00018603,0.0,0 STARLINK-4049,1 52840U 22062L   23051.97578573  .00018603  00000-0  11837-2 0  9993,2 52840  53.2183 349.2908 0001149  91.4610 268.6513 15.08844891 38295,6917.865,95.437,540.525,538.936,0.0
52840.0,STARLINK-4049,PAYLOAD,2023-02-21 12:08:12,15.08850233,0.0001272,53.2177,346.9105,84.5662,275.5475,0.00063065,9.766e-05,0.0,0 STARLINK-4049,1 52840U 22062L   23052.50570437  .00009766  00000-0  63065-3 0  9995,2 52840  53.2177 346.9105 0001272  84.5662 275.5475 15.08850233 38378,6917.849,95.437,540.594,538.834,0.0
52840.0,STARLINK-4049,PAYLOAD,2023-02-22 02:26:40,15.08845426,0.0001246,53.2168,344.2379,87.3528,272.7607,0.00011036,1.469e-05,0.0,0 STARLINK-4049,1 52840U 22062L   23053.10186323  .00001469  00000-0  11036-3 0  9992,2 52840  53.2168 344.2379 0001246  87.3528 272.7607 15.08845426 38469,6917.864,95.437,540.591,538.867,0.0
52840.0,STARLINK-4049,PAYLOAD,2023-02-22 04:02:04,15.08849516,0.0001441,53.2173,343.94,86.8687,273.247,0.00020231,2.934e-05,0.0,0 STARLINK-4049,1 52840U 22062L   23053.16810190  .00002934  00000-0  20231-3 0  9999,2 52840  53.2173 343.9400 0001441  86.8687 273.2470 15.08849516 37987,6917.851,95.437,540.713,538.719,0.0
52840.0,STARLINK-4049,PAYLOAD,2023-02-23 05:28:15,15.08832337,9.45e-05,53.2167,339.1803,80.0425,280.0674,0.00016871,2.398e-05,0.0,0 STARLINK-4049,1 52840U 22062L   23054.22795684  .00002398  00000-0  16871-3 0  9996,2 52840  53.2167 339.1803 0000945  80.0425 280.0674 15.08832337 38636,6917.904,95.438,540.423,539.115,0.0
52840.0,STARLINK-4049,PAYLOAD,2023-02-23 22:57:29,15.0886302,9.37e-05,53.2159,335.9103,76.4021,283.7075,0.001026,0.00016089,0.0,0 STARLINK-4049,1 52840U 22062L   23054.95659093  .00016089  00000-0  10260-2 0  9996,2 52840  53.2159 335.9103 0000937  76.4021 283.7075 15.08863020 38746,6917.81,95.436,540.323,539.027,0.0
52840.0,STARLINK-4049,PAYLOAD,2023-02-24 03:43:38,15.08892102,8.71e-05,53.2156,335.0177,77.0235,283.0854,0.0019505,0.00030935,0.0,0 STARLINK-4049,1 52840U 22062L   23055.15530395  .00030935  00000-0  19505-2 0  9999,2 52840  53.2156 335.0177 0000871  77.0235 283.0854 15.08892102 38770,6917.721,95.434,540.189,538.984,0.0
52840.0,STARLINK-4049,PAYLOAD,2023-02-24 18:02:06,15.08851087,9.44e-05,53.2152,332.3415,95.5922,264.5177,0.00070695,0.00010985,0.0,0 STARLINK-4049,1 52840U 22062L   23055.75146668  .00010985  00000-0  70695-3 0  9992,2 52840  53.2152 332.3415 0000944  95.5922 264.5177 15.08851087 38869,6917.847,95.437,540.365,539.058,0.0
52840.0,STARLINK-4049,PAYLOAD,2023-02-25 03:34:25,15.08844709,7.87e-05,53.2158,330.5575,98.344,261.7641,0.0010755,0.00016872,0.0,0 STARLINK-4049,1 52840U 22062L   23056.14890772  .00016872  00000-0  10755-2 0  9999,2 52840  53.2158 330.5575 0000787  98.3440 261.7641 15.08844709 38928,6917.866,95.437,540.275,539.187,0.0
52840.0,STARLINK-4049,PAYLOAD,2023-02-26 00:14:26,15.08842818,0.0001031,53.2159,326.6892,101.1529,258.9579,0.0010979,0.0001723,0.0,0 STARLINK-4049,1 52840U 22062L   23057.01003437  .00017230  00000-0  10979-2 0  9997,2 52840  53.2159 326.6892 0001031 101.1529 258.9579 15.08842818 39053,6917.872,95.437,540.45,539.024,0.0
52840.0,STARLINK-4049,PAYLOAD,2023-02-27 00:05:13,15.08869272,0.0001029,53.215,322.2294,94.3215,265.7895,0.00095662,0.00014982,0.0,0 STARLINK-4049,1 52840U 22062L   23058.00362411  .00014982  00000-0  95662-3 0  9991,2 52840  53.2150 322.2294 0001029  94.3215 265.7895 15.08869272 39201,6917.791,95.436,540.368,538.944,0.0
52840.0,STARLINK-4049,PAYLOAD,2023-02-28 03:06:44,15.08901804,0.0001162,53.2156,317.1736,100.5714,259.5409,0.0017255,0.00027327,0.0,0 STARLINK-4049,1 52840U 22062L   23059.12968056  .00027327  00000-0  17255-2 0  9990,2 52840  53.2156 317.1736 0001162 100.5714 259.5409 15.08901804 39371,6917.691,95.434,540.36,538.753,0.0
52840.0,STARLINK-4049,PAYLOAD,2023-02-28 22:11:24,15.08784037,0.0001009,53.2164,313.6084,109.4164,250.6937,0.00057522,8.865e-05,0.0,0 STARLINK-4049,1 52840U 22062L   23059.92459395  .00008865  00000-0  57522-3 0  9997,2 52840  53.2164 313.6084 0001009 109.4164 250.6937 15.08784037 39009,6918.051,95.441,540.614,539.218,0.0
52840.0,STARLINK-4049,PAYLOAD,2023-02-28 23:46:48,15.08774657,0.0001041,53.2163,313.311,63.2174,296.8924,0.00039475,5.989e-05,0.0,0 STARLINK-4049,1 52840U 22062L   23059.99083919  .00005989  00000-0  39475-3 0  9990,2 52840  53.2163 313.3110 0001041  63.2174 296.8924 15.08774657 39509,6918.08,95.442,540.665,539.225,0.0
52840.0,STARLINK-4049,PAYLOAD,2023-03-01 22:02:13,15.08828674,0.0001071,53.2158,309.1471,61.6362,298.4738,0.0013892,0.00021883,0.0,0 STARLINK-4049,1 52840U 22062L   23060.91821675  .00021883  00000-0  13892-2 0  9998,2 52840  53.2158 309.1471 0001071  61.6362 298.4738 15.08828674 39151,6917.915,95.438,540.521,539.039,0.0
52840.0,STARLINK-4049,PAYLOAD,2023-03-02 01:13:00,15.08856042,0.00011,53.2159,308.5512,57.4549,302.6549,0.0022619,0.0003591,0.0,0 STARLINK-4049,1 52840U 22062L   23061.05069491  .00035910  00000-0  22619-2 0  9997,2 52840  53.2159 308.5512 0001100  57.4549 302.6549 15.08856042 39668,6917.831,95.437,540.457,538.935,0.0
52840.0,STARLINK-4049,PAYLOAD,2023-03-02 18:42:13,15.08868343,0.0001152,53.2161,305.2821,76.4092,283.7029,0.00091194,0.00014267,0.0,0 STARLINK-4049,1 52840U 22062L   23061.77932558  .00014267  00000-0  91194-3 0  9996,2 52840  53.2161 305.2821 0001152  76.4092 283.7029 15.08868343 39286,6917.794,95.436,540.456,538.862,0.0
52840.0,STARLINK-4049,PAYLOAD,2023-03-03 02:39:08,15.08894489,0.0001126,53.2156,303.7949,63.1299,296.9808,0.0016317,0.00025815,0.0,0 STARLINK-4049,1 52840U 22062L   23062.11051470  .00025815  00000-0  16317-2 0  9994,2 52840  53.2156 303.7949 0001126  63.1299 296.9808 15.08894489 39828,6917.714,95.434,540.358,538.8,0.0
52840.0,STARLINK-4049,PAYLOAD,2023-03-03 21:43:45,15.08865614,0.0001201,53.2155,300.2273,90.9349,269.1781,0.0013425,0.00021157,0.0,0 STARLINK-4049,1 52840U 22062L   23062.90539174  .00021157  00000-0  13425-2 0  9995,2 52840  53.2155 300.2273 0001201  90.9349 269.1781 15.08865614 39940,6917.802,95.436,540.498,538.836,0.0
52840.0,STARLINK-4049,PAYLOAD,2023-03-04 00:54:31,15.08870212,0.0001348,53.2153,299.6324,79.0016,281.1127,0.0015895,0.0002512,0.0,0 STARLINK-4049,1 52840U 22062L   23063.03787003  .00025120  00000-0  15895-2 0  9993,2 52840  53.2153 299.6324 0001348  79.0016 281.1127 15.08870212 39473,6917.788,95.436,540.586,538.721,0.0
52840.0,STARLINK-4049,PAYLOAD,2023-03-04 21:34:33,15.08840764,0.0001213,53.2143,295.7645,105.6081,254.5046,0.0016238,0.0002565,0.0,0 STARLINK-4049,1 52840U 22062L   23063.89899971  .00025650  00000-0  16238-2 0  9995,2 52840  53.2143 295.7645 0001213 105.6081 254.5046 15.08840764 40097,6917.878,95.438,540.582,538.904,0.0
52840.0,STARLINK-4049,PAYLOAD,2023-03-05 00:45:19,15.08837306,0.0001252,53.2143,295.1693,100.064,260.0494,0.0011837,0.00018599,0.0,0 STARLINK-4049,1 52840U 22062L   23064.03148003  .00018599  00000-0  11837-2 0  9999,2 52840  53.2143 295.1693 0001252 100.0640 260.0494 15.08837306 40117,6917.889,95.438,540.62,538.888,0.0
52840.0,STARLINK-4049,PAYLOAD,2023-03-05 21:25:21,15.08836116,0.0001476,53.2153,291.3008,101.1194,258.9964,0.0012434,0.00019554,0.0,0 STARLINK-4049,1 52840U 22062L   23064.89260535  .00019554  00000-0  12434-2 0  9994,2 52840  53.2153 291.3008 0001476 101.1194 258.9964 15.08836116 40240,6917.892,95.438,540.778,538.736,0.0
52840.0,STARLINK-4049,PAYLOAD,2023-03-06 21:16:07,15.08853319,0.0001143,53.2133,286.8418,86.3885,273.7237,0.00056649,8.743e-05,0.0,0 STARLINK-4049,1 52840U 22062L   23065.88620063  .00008743  00000-0  56649-3 0  9995,2 52840  53.2133 286.8418 0001143  86.3885 273.7237 15.08853319 39907,6917.84,95.437,540.495,538.914,0.0
52840.0,STARLINK-4049,PAYLOAD,2023-03-07 00:26:53,15.08853135,0.0001281,53.2157,286.2466,93.7172,266.3967,0.00052789,8.126e-05,0.0,0 STARLINK-4049,1 52840U 22062L   23066.01867936  .00008126  00000-0  52789-3 0  9999,2 52840  53.2157 286.2466 0001281  93.7172 266.3967 15.08853135 40416,6917.84,95.437,540.591,538.819,0.0
52840.0,STARLINK-4049,PAYLOAD,2023-03-07 21:06:54,15.08847176,0.0001299,53.215,282.3826,73.5789,286.5346,0.00031648,4.753e-05,0.0,0 STARLINK-4049,1 52840U 22062L   23066.87979838  .00004753  00000-0  31648-3 0  9991,2 52840  53.2150 282.3826 0001299  73.5789 286.5346 15.08847176 40542,6917.858,95.437,540.622,538.825,0.0
52840.0,STARLINK-4049,PAYLOAD,2023-03-08 05:03:50,15.08826624,8.69e-05,53.214,280.8951,65.9062,294.2021,-0.00038942,-6.478e-05,0.0,0 STARLINK-4049,1 52840U 22062L   23067.21100111 -.00006478  00000-0 -38942-3 0  9992,2 52840  53.2140 280.8951 0000869  65.9062 294.2021 15.08826624 40590,6917.921,95.438,540.387,539.185,0.0
52840.0,STARLINK-4049,PAYLOAD,2023-03-08 14:36:09,15.0883356,7e-05,53.2138,279.1101,76.6106,283.4965,5.6658e-06,-1.97e-06,0.0,0 STARLINK-4049,1 52840U 22062L   23067.60843907 -.00000197  00000-0  56658-5 0  9999,2 52840  53.2138 279.1101 0000700  76.6106 283.4965 15.08833560 40658,6917.9,95.438,540.249,539.281,0.0
